[{"OBJECT_NAME":"STARLINK-5845","OBJECT_ID":"2023-088C","EPOCH":"2026-03-09T19:07:01.247808","MEAN_MOTION":15.02534824,"ECCENTRICITY":0.0001343,"INCLINATION":43.0052,"RA_OF_ASC_NODE":107.0828,"ARG_OF_PERICENTER":268.4424,"MEAN_ANOMALY":91.6264,"EPHEMERIS_TYPE":0,"CLASSIFICATION_TYPE":"U","NORAD_CAT_ID":57050,"ELEMENT_SET_NO":999,"REV_AT_EPOCH":15038,"BSTAR":1.9932039e-5,"MEAN_MOTION_DOT":6.6e-7,"MEAN_MOTION_DDOT":0},{"OBJECT_NAME":"COSMOS 2251 DEB","OBJECT_ID":"1993-036KZ","EPOCH":"2026-03-09T13:28:08.575968","MEAN_MOTION":15.07827872,"ECCENTRICITY":0.00279097,"INCLINATION":73.9949,"RA_OF_ASC_NODE":118.7357,"ARG_OF_PERICENTER":226.7607,"MEAN_ANOMALY":259.798,"EPHEMERIS_TYPE":0,"CLASSIFICATION_TYPE":"U","NORAD_CAT_ID":34128,"ELEMENT_SET_NO":999,"REV_AT_EPOCH":90472,"BSTAR":0.0021198383,"MEAN_MOTION_DOT":0.0003287,"MEAN_MOTION_DDOT":0}]
